{
"type": "FeatureCollection",
"name": "cci",
"crs": { "type": "name", "properties": { "name": "urn:ogc:def:crs:OGC:1.3:CRS84" } },
"features": [
{ "type": "Feature", "properties": { "id": "cci-1", "codigo_origem": "1", "nome": "ASSOCIACAO ASMOREJ", "endereco": "R JACANA, 138", "bairro_informado": "", "fq": "", "categoria": "Equipamentos Comunitários", "subcategoria": "Centros e equipamentos comunitários", "fonte": "Base municipal de Equipamentos Urbanos", "ano_referencia": 2021, "status_atualizacao": "validar_atualidade" }, "geometry": { "type": "Point", "coordinates": [ -46.794085738038689, -23.654381380838032 ] } },
{ "type": "Feature", "properties": { "id": "cci-2", "codigo_origem": "2", "nome": "PARQUE FRANCISCO RIZZO", "endereco": "R ALBERTO GIOSA, 390", "bairro_informado": "", "fq": "", "categoria": "Equipamentos Comunitários", "subcategoria": "Centros e equipamentos comunitários", "fonte": "Base municipal de Equipamentos Urbanos", "ano_referencia": 2021, "status_atualizacao": "validar_atualidade" }, "geometry": { "type": "Point", "coordinates": [ -46.855961983733323, -23.658033712925693 ] } },
{ "type": "Feature", "properties": { "id": "cci-3", "codigo_origem": "3", "nome": "DOM JOSE", "endereco": "R AGUAS DE SAO PEDRO, 590", "bairro_informado": "", "fq": "", "categoria": "Equipamentos Comunitários", "subcategoria": "Centros e equipamentos comunitários", "fonte": "Base municipal de Equipamentos Urbanos", "ano_referencia": 2021, "status_atualizacao": "validar_atualidade" }, "geometry": { "type": "Point", "coordinates": [ -46.80149865456012, -23.675080341019012 ] } },
{ "type": "Feature", "properties": { "id": "cci-4", "codigo_origem": "4", "nome": "EMILIO CARLOS", "endereco": "AV RUDGE RAMOS, 545", "bairro_informado": "", "fq": "", "categoria": "Equipamentos Comunitários", "subcategoria": "Centros e equipamentos comunitários", "fonte": "Base municipal de Equipamentos Urbanos", "ano_referencia": 2021, "status_atualizacao": "validar_atualidade" }, "geometry": { "type": "Point", "coordinates": [ -46.794533344120552, -23.662857942566891 ] } },
{ "type": "Feature", "properties": { "id": "cci-5", "codigo_origem": "5", "nome": "IDEPENDENCIA", "endereco": "R TOMAS ANTONIO GONZAGA, S/N", "bairro_informado": "", "fq": "", "categoria": "Equipamentos Comunitários", "subcategoria": "Centros e equipamentos comunitários", "fonte": "Base municipal de Equipamentos Urbanos", "ano_referencia": 2021, "status_atualizacao": "validar_atualidade" }, "geometry": { "type": "Point", "coordinates": [ -46.796339034464253, -23.653104128779809 ] } },
{ "type": "Feature", "properties": { "id": "cci-6", "codigo_origem": "6", "nome": "ISIS CRISTINA", "endereco": "R FRANCISCA DE RODRIGUES ADRIANO, 496", "bairro_informado": "", "fq": "", "categoria": "Equipamentos Comunitários", "subcategoria": "Centros e equipamentos comunitários", "fonte": "Base municipal de Equipamentos Urbanos", "ano_referencia": 2021, "status_atualizacao": "validar_atualidade" }, "geometry": { "type": "Point", "coordinates": [ -46.820945627227204, -23.652105798233894 ] } },
{ "type": "Feature", "properties": { "id": "cci-7", "codigo_origem": "7", "nome": "ITATUBA", "endereco": "ESTR MARIA JOSE FERRAZ DO PRADO, 2653", "bairro_informado": "", "fq": "", "categoria": "Equipamentos Comunitários", "subcategoria": "Centros e equipamentos comunitários", "fonte": "Base municipal de Equipamentos Urbanos", "ano_referencia": 2021, "status_atualizacao": "validar_atualidade" }, "geometry": { "type": "Point", "coordinates": [ -46.900423124581046, -23.644564292032886 ] } },
{ "type": "Feature", "properties": { "id": "cci-8", "codigo_origem": "8", "nome": "JD DO COLEGIO", "endereco": "ESTR CONSTANTINOPLA, 519", "bairro_informado": "", "fq": "", "categoria": "Equipamentos Comunitários", "subcategoria": "Centros e equipamentos comunitários", "fonte": "Base municipal de Equipamentos Urbanos", "ano_referencia": 2021, "status_atualizacao": "validar_atualidade" }, "geometry": { "type": "Point", "coordinates": [ -46.799682699354207, -23.65670527982725 ] } },
{ "type": "Feature", "properties": { "id": "cci-9", "codigo_origem": "9", "nome": "MAGALI", "endereco": "ESTR PROFESSOR MARIO OSASSA, 117/542", "bairro_informado": "", "fq": "", "categoria": "Equipamentos Comunitários", "subcategoria": "Centros e equipamentos comunitários", "fonte": "Base municipal de Equipamentos Urbanos", "ano_referencia": 2021, "status_atualizacao": "validar_atualidade" }, "geometry": { "type": "Point", "coordinates": [ -46.83795755189319, -23.653750351667856 ] } },
{ "type": "Feature", "properties": { "id": "cci-10", "codigo_origem": "10", "nome": "JULIA", "endereco": "ESTR DA CONSTANTINOPLA, 419", "bairro_informado": "", "fq": "", "categoria": "Equipamentos Comunitários", "subcategoria": "Centros e equipamentos comunitários", "fonte": "Base municipal de Equipamentos Urbanos", "ano_referencia": 2021, "status_atualizacao": "validar_atualidade" }, "geometry": { "type": "Point", "coordinates": [ -46.800601919146885, -23.65672873369196 ] } },
{ "type": "Feature", "properties": { "id": "cci-11", "codigo_origem": "11", "nome": "QUADRA LAILA", "endereco": "R PENHA, S/N", "bairro_informado": "", "fq": "", "categoria": "Equipamentos Comunitários", "subcategoria": "Centros e equipamentos comunitários", "fonte": "Base municipal de Equipamentos Urbanos", "ano_referencia": 2021, "status_atualizacao": "validar_atualidade" }, "geometry": { "type": "Point", "coordinates": [ -46.803329469557852, -23.65228757323581 ] } },
{ "type": "Feature", "properties": { "id": "cci-12", "codigo_origem": "12", "nome": "PARQUE LUIZA", "endereco": "R UBERLANDIA, 177", "bairro_informado": "", "fq": "", "categoria": "Equipamentos Comunitários", "subcategoria": "Centros e equipamentos comunitários", "fonte": "Base municipal de Equipamentos Urbanos", "ano_referencia": 2021, "status_atualizacao": "validar_atualidade" }, "geometry": { "type": "Point", "coordinates": [ -46.79645168290471, -23.670601390123757 ] } },
{ "type": "Feature", "properties": { "id": "cci-13", "codigo_origem": "13", "nome": "GINASIO PARQUE PIRAJUSSARA", "endereco": "AV AIMARA, 3082", "bairro_informado": "", "fq": "", "categoria": "Equipamentos Comunitários", "subcategoria": "Centros e equipamentos comunitários", "fonte": "Base municipal de Equipamentos Urbanos", "ano_referencia": 2021, "status_atualizacao": "validar_atualidade" }, "geometry": { "type": "Point", "coordinates": [ -46.814482325500059, -23.651167216334564 ] } },
{ "type": "Feature", "properties": { "id": "cci-14", "codigo_origem": "14", "nome": "PINHEIRINHO", "endereco": "R PAINEIRA, 91", "bairro_informado": "", "fq": "", "categoria": "Equipamentos Comunitários", "subcategoria": "Centros e equipamentos comunitários", "fonte": "Base municipal de Equipamentos Urbanos", "ano_referencia": 2021, "status_atualizacao": "validar_atualidade" }, "geometry": { "type": "Point", "coordinates": [ -46.856539168238783, -23.679267926872029 ] } },
{ "type": "Feature", "properties": { "id": "cci-15", "codigo_origem": "15", "nome": "SANTA EMILIA", "endereco": "ESTR DE ITAPECERICA, 1940 CAMPO LIMPO E R CAPRI, 50", "bairro_informado": "", "fq": "", "categoria": "Equipamentos Comunitários", "subcategoria": "Centros e equipamentos comunitários", "fonte": "Base municipal de Equipamentos Urbanos", "ano_referencia": 2021, "status_atualizacao": "validar_atualidade" }, "geometry": { "type": "Point", "coordinates": [ -46.798817926326059, -23.661900777079602 ] } },
{ "type": "Feature", "properties": { "id": "cci-16", "codigo_origem": "16", "nome": "ASSOCIACAO SANTA TEREZA", "endereco": "AV JOAO PAULO II, 1185", "bairro_informado": "", "fq": "", "categoria": "Equipamentos Comunitários", "subcategoria": "Centros e equipamentos comunitários", "fonte": "Base municipal de Equipamentos Urbanos", "ano_referencia": 2021, "status_atualizacao": "validar_atualidade" }, "geometry": { "type": "Point", "coordinates": [ -46.801939672837761, -23.647548996120008 ] } },
{ "type": "Feature", "properties": { "id": "cci-17", "codigo_origem": "17", "nome": "QUADRA SANTA TEREZA", "endereco": "R BELGRADO, S/N", "bairro_informado": "", "fq": "", "categoria": "Equipamentos Comunitários", "subcategoria": "Centros e equipamentos comunitários", "fonte": "Base municipal de Equipamentos Urbanos", "ano_referencia": 2021, "status_atualizacao": "validar_atualidade" }, "geometry": { "type": "Point", "coordinates": [ -46.803174499282896, -23.646346064157981 ] } },
{ "type": "Feature", "properties": { "id": "cci-18", "codigo_origem": "18", "nome": "SANTO ANTONIO", "endereco": "NOSSA SENHORA DA CONCEICAO, 232", "bairro_informado": "", "fq": "", "categoria": "Equipamentos Comunitários", "subcategoria": "Centros e equipamentos comunitários", "fonte": "Base municipal de Equipamentos Urbanos", "ano_referencia": 2021, "status_atualizacao": "validar_atualidade" }, "geometry": { "type": "Point", "coordinates": [ -46.846122406508755, -23.673200418888108 ] } },
{ "type": "Feature", "properties": { "id": "cci-19", "codigo_origem": "19", "nome": "SAO LUIZ", "endereco": "AV JOAO PAULO, 3082", "bairro_informado": "", "fq": "", "categoria": "Equipamentos Comunitários", "subcategoria": "Centros e equipamentos comunitários", "fonte": "Base municipal de Equipamentos Urbanos", "ano_referencia": 2021, "status_atualizacao": "validar_atualidade" }, "geometry": { "type": "Point", "coordinates": [ -46.812093147590012, -23.641169674010023 ] } },
{ "type": "Feature", "properties": { "id": "cci-20", "codigo_origem": "20", "nome": "SAO VICENTE", "endereco": "R URCA, 17", "bairro_informado": "", "fq": "", "categoria": "Equipamentos Comunitários", "subcategoria": "Centros e equipamentos comunitários", "fonte": "Base municipal de Equipamentos Urbanos", "ano_referencia": 2021, "status_atualizacao": "validar_atualidade" }, "geometry": { "type": "Point", "coordinates": [ -46.805083616674146, -23.659137618961573 ] } },
{ "type": "Feature", "properties": { "id": "cci-21", "codigo_origem": "21", "nome": "JD SILVIA", "endereco": "R PIAUI, 326", "bairro_informado": "", "fq": "", "categoria": "Equipamentos Comunitários", "subcategoria": "Centros e equipamentos comunitários", "fonte": "Base municipal de Equipamentos Urbanos", "ano_referencia": 2021, "status_atualizacao": "validar_atualidade" }, "geometry": { "type": "Point", "coordinates": [ -46.849403441127727, -23.642275134746725 ] } },
{ "type": "Feature", "properties": { "id": "cci-22", "codigo_origem": "22", "nome": "JD TAIMA", "endereco": "R TATUI, 180", "bairro_informado": "", "fq": "", "categoria": "Equipamentos Comunitários", "subcategoria": "Centros e equipamentos comunitários", "fonte": "Base municipal de Equipamentos Urbanos", "ano_referencia": 2021, "status_atualizacao": "validar_atualidade" }, "geometry": { "type": "Point", "coordinates": [ -46.803927857580838, -23.669344172449208 ] } },
{ "type": "Feature", "properties": { "id": "cci-23", "codigo_origem": "23", "nome": "JD VALO VERDE", "endereco": "R SAO MARCELO, 196", "bairro_informado": "", "fq": "", "categoria": "Equipamentos Comunitários", "subcategoria": "Centros e equipamentos comunitários", "fonte": "Base municipal de Equipamentos Urbanos", "ano_referencia": 2021, "status_atualizacao": "validar_atualidade" }, "geometry": { "type": "Point", "coordinates": [ -46.809955110210055, -23.655854782477235 ] } },
{ "type": "Feature", "properties": { "id": "cci-24", "codigo_origem": "24", "nome": "JD VISTA ALEGRE", "endereco": "R NITEROI, 1000", "bairro_informado": "", "fq": "", "categoria": "Equipamentos Comunitários", "subcategoria": "Centros e equipamentos comunitários", "fonte": "Base municipal de Equipamentos Urbanos", "ano_referencia": 2021, "status_atualizacao": "validar_atualidade" }, "geometry": { "type": "Point", "coordinates": [ -46.821263830726153, -23.627314200592423 ] } }
]
}
