{
"type": "FeatureCollection",
"name": "conselho-tutelar",
"crs": { "type": "name", "properties": { "name": "urn:ogc:def:crs:OGC:1.3:CRS84" } },
"features": [
{ "type": "Feature", "properties": { "id": "conselho-tutelar-1", "codigo_origem": "1", "nome": "CONSELHO TUTELAR I", "endereco": "AL FERNANDO B MEDINA, 19", "bairro_informado": "", "fq": "10.23.70.0516.01.000", "categoria": "Proteção", "subcategoria": "Conselho Tutelar", "fonte": "Base municipal de Equipamentos Urbanos", "ano_referencia": 2021, "status_atualizacao": "validar_atualidade" }, "geometry": { "type": "Point", "coordinates": [ -46.855616169016244, -23.652707313896652 ] } },
{ "type": "Feature", "properties": { "id": "conselho-tutelar-2", "codigo_origem": "2", "nome": "COSELHO TUTELAR II", "endereco": "ESTR DE ITAPECERICA C LIMPO, 2022", "bairro_informado": "", "fq": "17.12.63.0454.01.000", "categoria": "Proteção", "subcategoria": "Conselho Tutelar", "fonte": "Base municipal de Equipamentos Urbanos", "ano_referencia": 2021, "status_atualizacao": "validar_atualidade" }, "geometry": { "type": "Point", "coordinates": [ -46.800005096480561, -23.665818314268467 ] } }
]
}
