{
"type": "FeatureCollection",
"name": "educacao-particular",
"crs": { "type": "name", "properties": { "name": "urn:ogc:def:crs:OGC:1.3:CRS84" } },
"features": [
{ "type": "Feature", "properties": { "id": "educacao-particular-1", "codigo_origem": "1", "nome": "A CHAVE DO SABER", "endereco": "ESTR DE ITAPECERICA C LIMPO, 2617 JD SANTO EDUARDO", "bairro_informado": "JD. STO EDUARDO", "fq": "", "categoria": "Educação", "subcategoria": "Rede particular", "fonte": "Base municipal de Equipamentos Urbanos", "ano_referencia": 2021, "status_atualizacao": "validar_atualidade" }, "geometry": { "type": "Point", "coordinates": [ -46.803033106228447, -23.670210146770245 ] } },
{ "type": "Feature", "properties": { "id": "educacao-particular-2", "codigo_origem": "2", "nome": "ADVENTISTA DE EMBU DAS ARTES", "endereco": "R JULIETA J GALLO, 270 CHACARA LIDIA", "bairro_informado": "CH. LIDIA", "fq": "80.01.12.0112.01.000", "categoria": "Educação", "subcategoria": "Rede particular", "fonte": "Base municipal de Equipamentos Urbanos", "ano_referencia": 2021, "status_atualizacao": "validar_atualidade" }, "geometry": { "type": "Point", "coordinates": [ -46.865825626440412, -23.663273854460137 ] } },
{ "type": "Feature", "properties": { "id": "educacao-particular-3", "codigo_origem": "3", "nome": "ALEM DAS LETRAS", "endereco": "R SIAO , 37 CHACARA CAXINGUI", "bairro_informado": "CH. CAXINGUI", "fq": "", "categoria": "Educação", "subcategoria": "Rede particular", "fonte": "Base municipal de Equipamentos Urbanos", "ano_referencia": 2021, "status_atualizacao": "validar_atualidade" }, "geometry": { "type": "Point", "coordinates": [ -46.811203778588713, -23.665220057583454 ] } },
{ "type": "Feature", "properties": { "id": "educacao-particular-4", "codigo_origem": "4", "nome": "ALEM DAS LETRAS EMBU DAS ARTES", "endereco": "R DO ENGENHEIRO, 122 JD DE LOURDES", "bairro_informado": "JD. DE LOURDES", "fq": "06.43.48.0088.01.000", "categoria": "Educação", "subcategoria": "Rede particular", "fonte": "Base municipal de Equipamentos Urbanos", "ano_referencia": 2021, "status_atualizacao": "validar_atualidade" }, "geometry": { "type": "Point", "coordinates": [ -46.836849647706956, -23.638604978158625 ] } },
{ "type": "Feature", "properties": { "id": "educacao-particular-5", "codigo_origem": "5", "nome": "ALFA ESCOLA", "endereco": "R S GABRIEL, 145 JD DOM JOSE", "bairro_informado": "PARANAPANEMA", "fq": "", "categoria": "Educação", "subcategoria": "Rede particular", "fonte": "Base municipal de Equipamentos Urbanos", "ano_referencia": 2021, "status_atualizacao": "validar_atualidade" }, "geometry": { "type": "Point", "coordinates": [ -46.804890116909618, -23.665292569439938 ] } },
{ "type": "Feature", "properties": { "id": "educacao-particular-6", "codigo_origem": "6", "nome": "ARAUTOS DO EVANGELHO INTERNACIONAL", "endereco": "ESTR PONTA PORA, 1080 BOSQUE CAPUAVA", "bairro_informado": "BOSQUE CAPUAVA", "fq": "80.01.14.0039.01.000", "categoria": "Educação", "subcategoria": "Rede particular", "fonte": "Base municipal de Equipamentos Urbanos", "ano_referencia": 2021, "status_atualizacao": "validar_atualidade" }, "geometry": { "type": "Point", "coordinates": [ -46.873694049486026, -23.626645646219178 ] } },
{ "type": "Feature", "properties": { "id": "educacao-particular-7", "codigo_origem": "7", "nome": "AURELIO", "endereco": "R ALEXANDRE KADUNC, 238 TINGIDOR", "bairro_informado": "TINGIDOR", "fq": "80.01.31.6010.01.000", "categoria": "Educação", "subcategoria": "Rede particular", "fonte": "Base municipal de Equipamentos Urbanos", "ano_referencia": 2021, "status_atualizacao": "validar_atualidade" }, "geometry": { "type": "Point", "coordinates": [ -46.849209612280227, -23.653656949678787 ] } },
{ "type": "Feature", "properties": { "id": "educacao-particular-8", "codigo_origem": "8", "nome": "COLIBRI", "endereco": "VIA DAS MAGNOLIAS, 44 JD COLIBRI", "bairro_informado": "JD. COLIBRI", "fq": "80.01.32.0009.01.000", "categoria": "Educação", "subcategoria": "Rede particular", "fonte": "Base municipal de Equipamentos Urbanos", "ano_referencia": 2021, "status_atualizacao": "validar_atualidade" }, "geometry": { "type": "Point", "coordinates": [ -46.858511689323215, -23.620383421885261 ] } },
{ "type": "Feature", "properties": { "id": "educacao-particular-9", "codigo_origem": "9", "nome": "CENTRO EDUCACIONAL CURUNIM", "endereco": "R PAU BRASIL, 420 JD PINHEIRINHO", "bairro_informado": "JD. PINHEIRINHO", "fq": "15.54.09.0140.00.000", "categoria": "Educação", "subcategoria": "Rede particular", "fonte": "Base municipal de Equipamentos Urbanos", "ano_referencia": 2021, "status_atualizacao": "validar_atualidade" }, "geometry": { "type": "Point", "coordinates": [ -46.854771791337981, -23.679469966279619 ] } },
{ "type": "Feature", "properties": { "id": "educacao-particular-10", "codigo_origem": "10", "nome": "ESCOLA ADVENTISTA PIRAJUSSARA", "endereco": "AV JOAO PAULO II, 1366 VILA REGINA", "bairro_informado": "VL.REGINA", "fq": "12.14.99.0244.01.000", "categoria": "Educação", "subcategoria": "Rede particular", "fonte": "Base municipal de Equipamentos Urbanos", "ano_referencia": 2021, "status_atualizacao": "validar_atualidade" }, "geometry": { "type": "Point", "coordinates": [ -46.799800443161288, -23.647552268540213 ] } },
{ "type": "Feature", "properties": { "id": "educacao-particular-11", "codigo_origem": "11", "nome": "ESCOLA COFESSIONAL SANTA CATARINA", "endereco": "R S BERNARDO, 25 JD SAO MARCOS", "bairro_informado": "JD. S MARCOS", "fq": "", "categoria": "Educação", "subcategoria": "Rede particular", "fonte": "Base municipal de Equipamentos Urbanos", "ano_referencia": 2021, "status_atualizacao": "validar_atualidade" }, "geometry": { "type": "Point", "coordinates": [ -46.814134045034443, -23.659067589444202 ] } },
{ "type": "Feature", "properties": { "id": "educacao-particular-12", "codigo_origem": "12", "nome": "INSTITUTO DE DESENVOVIMENTO EDUCACIONAL", "endereco": "R IRACEMA, 12 JD SAO MARCOS", "bairro_informado": "PQ. PIRAJUSSARA", "fq": "", "categoria": "Educação", "subcategoria": "Rede particular", "fonte": "Base municipal de Equipamentos Urbanos", "ano_referencia": 2021, "status_atualizacao": "validar_atualidade" }, "geometry": { "type": "Point", "coordinates": [ -46.815392761707223, -23.647723590292909 ] } },
{ "type": "Feature", "properties": { "id": "educacao-particular-13", "codigo_origem": "13", "nome": "IEDA PICON", "endereco": "R ALEARDO CARPI, 410 VILA BONFIM", "bairro_informado": "VILA BONFIM", "fq": "10.31.29.0757.01.000", "categoria": "Educação", "subcategoria": "Rede particular", "fonte": "Base municipal de Equipamentos Urbanos", "ano_referencia": 2021, "status_atualizacao": "validar_atualidade" }, "geometry": { "type": "Point", "coordinates": [ -46.846407640772121, -23.64327320767287 ] } },
{ "type": "Feature", "properties": { "id": "educacao-particular-14", "codigo_origem": "14", "nome": "INSTITUTO DE EDUCACAO ALBERTO MOTA", "endereco": "AV JOAO B MEDINA, 2334 CHACARA BARTIRA", "bairro_informado": "CH. ANA LUCIA", "fq": "", "categoria": "Educação", "subcategoria": "Rede particular", "fonte": "Base municipal de Equipamentos Urbanos", "ano_referencia": 2021, "status_atualizacao": "validar_atualidade" }, "geometry": { "type": "Point", "coordinates": [ -46.873093766327976, -23.644328884501657 ] } },
{ "type": "Feature", "properties": { "id": "educacao-particular-15", "codigo_origem": "15", "nome": "NUCLEO EDUCACIONAL NOVA ARCA", "endereco": "R MAR VERMELHO, 38 ESTANCIA DE EMBU", "bairro_informado": "EMBUARAMA", "fq": "", "categoria": "Educação", "subcategoria": "Rede particular", "fonte": "Base municipal de Equipamentos Urbanos", "ano_referencia": 2021, "status_atualizacao": "validar_atualidade" }, "geometry": { "type": "Point", "coordinates": [ -46.851537127739938, -23.639553552285214 ] } },
{ "type": "Feature", "properties": { "id": "educacao-particular-16", "codigo_origem": "16", "nome": "POLIS COLEGIO PG E PRE ESCOLA", "endereco": "R TANCREDO NEVES, 17 JD SANTA EMILIA", "bairro_informado": "JD. STA EMILIA", "fq": "80.01.03.0010.01.000", "categoria": "Educação", "subcategoria": "Rede particular", "fonte": "Base municipal de Equipamentos Urbanos", "ano_referencia": 2021, "status_atualizacao": "validar_atualidade" }, "geometry": { "type": "Point", "coordinates": [ -46.800009292963452, -23.663225585124586 ] } },
{ "type": "Feature", "properties": { "id": "educacao-particular-17", "codigo_origem": "17", "nome": "PRIMEIRA OPCAO", "endereco": "R BELO HORIZONTE, 85 TINGIDOR", "bairro_informado": "CENTRO", "fq": "10.24.03.0242.01.000", "categoria": "Educação", "subcategoria": "Rede particular", "fonte": "Base municipal de Equipamentos Urbanos", "ano_referencia": 2021, "status_atualizacao": "validar_atualidade" }, "geometry": { "type": "Point", "coordinates": [ -46.853794896757023, -23.650458559652012 ] } },
{ "type": "Feature", "properties": { "id": "educacao-particular-18", "codigo_origem": "18", "nome": "NUCLEO DE DESENVOLVIMENTO INFANTIL E FUNDAMENTAL", "endereco": "R EQUADOR, 25 JD DOS MORAES", "bairro_informado": "JD. DOS MORAES", "fq": "", "categoria": "Educação", "subcategoria": "Rede particular", "fonte": "Base municipal de Equipamentos Urbanos", "ano_referencia": 2021, "status_atualizacao": "validar_atualidade" }, "geometry": { "type": "Point", "coordinates": [ -46.819822171210809, -23.657643021400087 ] } },
{ "type": "Feature", "properties": { "id": "educacao-particular-19", "codigo_origem": "19", "nome": "TARSILA DO AMARAL", "endereco": "R SANTA INES, 555 JD ITATUBA", "bairro_informado": "JD. STO ANTONIO", "fq": "", "categoria": "Educação", "subcategoria": "Rede particular", "fonte": "Base municipal de Equipamentos Urbanos", "ano_referencia": 2021, "status_atualizacao": "validar_atualidade" }, "geometry": { "type": "Point", "coordinates": [ -46.844619931058823, -23.67638008220155 ] } }
]
}
