{
"type": "FeatureCollection",
"name": "esportes",
"crs": { "type": "name", "properties": { "name": "urn:ogc:def:crs:OGC:1.3:CRS84" } },
"features": [
{ "type": "Feature", "properties": { "id": "esportes-1", "codigo_origem": "1", "nome": "ESTADIO MUNICIPAL HERMINIO ESPOSIOTO", "endereco": "AL FERNANDO BATISTA, 120 - CENTRO", "bairro_informado": "", "fq": "80.01.31.0045.01.000", "categoria": "Esporte", "subcategoria": "Esporte e lazer", "fonte": "Base municipal de Equipamentos Urbanos", "ano_referencia": 2021, "status_atualizacao": "validar_atualidade" }, "geometry": { "type": "Point", "coordinates": [ -46.856819285409763, -23.652679811262264 ] } },
{ "type": "Feature", "properties": { "id": "esportes-2", "codigo_origem": "2", "nome": "CAMPO MIMAS", "endereco": "R AUTRALIA, 75 JD MIMAS", "bairro_informado": "", "fq": "80.01.07.0153.01.000", "categoria": "Esporte", "subcategoria": "Esporte e lazer", "fonte": "Base municipal de Equipamentos Urbanos", "ano_referencia": 2021, "status_atualizacao": "validar_atualidade" }, "geometry": { "type": "Point", "coordinates": [ -46.813770104518177, -23.618820243809111 ] } },
{ "type": "Feature", "properties": { "id": "esportes-3", "codigo_origem": "3", "nome": "PARQUE GRANCISCO RIZZO CONVIVER", "endereco": "R ALBERTO GIOSIA, 390 PQ FRANCISCO RIZZO", "bairro_informado": "", "fq": "80.01.06.0192.01.000", "categoria": "Esporte", "subcategoria": "Esporte e lazer", "fonte": "Base municipal de Equipamentos Urbanos", "ano_referencia": 2021, "status_atualizacao": "validar_atualidade" }, "geometry": { "type": "Point", "coordinates": [ -46.856246794126861, -23.6584744601235 ] } },
{ "type": "Feature", "properties": { "id": "esportes-4", "codigo_origem": "4", "nome": "CAMPO MAGALI", "endereco": "ESTR DO GRAMADO, 835 - JD MAGALI", "bairro_informado": "", "fq": "80.01.02.0027.01.000", "categoria": "Esporte", "subcategoria": "Esporte e lazer", "fonte": "Base municipal de Equipamentos Urbanos", "ano_referencia": 2021, "status_atualizacao": "validar_atualidade" }, "geometry": { "type": "Point", "coordinates": [ -46.842216410966408, -23.655532593569593 ] } },
{ "type": "Feature", "properties": { "id": "esportes-5", "codigo_origem": "5", "nome": "GINASIO JOSE ANACLETO", "endereco": "R BELGRADO, S/N JD SANTA TEREZA", "bairro_informado": "", "fq": "SEM FQ.", "categoria": "Esporte", "subcategoria": "Esporte e lazer", "fonte": "Base municipal de Equipamentos Urbanos", "ano_referencia": 2021, "status_atualizacao": "validar_atualidade" }, "geometry": { "type": "Point", "coordinates": [ -46.803214201809254, -23.646339281567919 ] } },
{ "type": "Feature", "properties": { "id": "esportes-6", "codigo_origem": "6", "nome": "CENTRO ESPORTIVO JOAO MARRETA", "endereco": "R JOSE MENDES FERREIRAS, 340 JD SANTA TEREZA", "bairro_informado": "", "fq": "12.14.64.0052.01.000", "categoria": "Esporte", "subcategoria": "Esporte e lazer", "fonte": "Base municipal de Equipamentos Urbanos", "ano_referencia": 2021, "status_atualizacao": "validar_atualidade" }, "geometry": { "type": "Point", "coordinates": [ -46.801932665232208, -23.650328855127842 ] } },
{ "type": "Feature", "properties": { "id": "esportes-7", "codigo_origem": "7", "nome": "QUADRA ENGENHO VELHO", "endereco": "ESTR DOS ORQUIDOFILOS, S/N ENGENHO VELHO", "bairro_informado": "", "fq": "80.01.06.0181.01.000", "categoria": "Esporte", "subcategoria": "Esporte e lazer", "fonte": "Base municipal de Equipamentos Urbanos", "ano_referencia": 2021, "status_atualizacao": "validar_atualidade" }, "geometry": { "type": "Point", "coordinates": [ -46.85921383131398, -23.662266016229285 ] } },
{ "type": "Feature", "properties": { "id": "esportes-8", "codigo_origem": "8", "nome": "GINASIO POLIESPORTIVO AMAURI SEVERO DOS SANTOS", "endereco": "R NILO, 1611 JD CASA BRANCA", "bairro_informado": "", "fq": "12.21.41.0001.01.000", "categoria": "Esporte", "subcategoria": "Esporte e lazer", "fonte": "Base municipal de Equipamentos Urbanos", "ano_referencia": 2021, "status_atualizacao": "validar_atualidade" }, "geometry": { "type": "Point", "coordinates": [ -46.797591346499189, -23.647707839430907 ] } },
{ "type": "Feature", "properties": { "id": "esportes-9", "codigo_origem": "9", "nome": "CENTRO ESPORTIVO INDEPENDENCIA", "endereco": "RAUA TOMAZ ANTONIO GONZAGA, 430 JD INDEPENDENCIA", "bairro_informado": "", "fq": "12.51.39.0388.01.000", "categoria": "Esporte", "subcategoria": "Esporte e lazer", "fonte": "Base municipal de Equipamentos Urbanos", "ano_referencia": 2021, "status_atualizacao": "validar_atualidade" }, "geometry": { "type": "Point", "coordinates": [ -46.797457719653138, -23.653551580767211 ] } },
{ "type": "Feature", "properties": { "id": "esportes-10", "codigo_origem": "10", "nome": "PRACA DA JUVENTUDE", "endereco": "AV AUGUSTO DE ALMEIDA BATISITA, S/N JD SAO MARCOS", "bairro_informado": "", "fq": "11.63.63.1284.01.000", "categoria": "Esporte", "subcategoria": "Esporte e lazer", "fonte": "Base municipal de Equipamentos Urbanos", "ano_referencia": 2021, "status_atualizacao": "validar_atualidade" }, "geometry": { "type": "Point", "coordinates": [ -46.815749988343072, -23.662762351545442 ] } },
{ "type": "Feature", "properties": { "id": "esportes-11", "codigo_origem": "11", "nome": "GINASIO POLIESPORTIVO VALDELICE", "endereco": "AV AIMARA, 405 PARQUE PIRAJUSSARA", "bairro_informado": "", "fq": "80.01.03.0206.01.000", "categoria": "Esporte", "subcategoria": "Esporte e lazer", "fonte": "Base municipal de Equipamentos Urbanos", "ano_referencia": 2021, "status_atualizacao": "validar_atualidade" }, "geometry": { "type": "Point", "coordinates": [ -46.814473436644079, -23.651233417101047 ] } },
{ "type": "Feature", "properties": { "id": "esportes-12", "codigo_origem": "12", "nome": "COMPLEXO POLIESPORTIVO SANTO EDUARDO", "endereco": "R MARINGA, S/N JD SANTO EDUARDO", "bairro_informado": "", "fq": "80.01.06.1470.01.000", "categoria": "Esporte", "subcategoria": "Esporte e lazer", "fonte": "Base municipal de Equipamentos Urbanos", "ano_referencia": 2021, "status_atualizacao": "validar_atualidade" }, "geometry": { "type": "Point", "coordinates": [ -46.801285515525045, -23.670897046591072 ] } },
{ "type": "Feature", "properties": { "id": "esportes-13", "codigo_origem": "13", "nome": "CENTRO ESPORTIVO DOM JOSE", "endereco": "AV LORENA S/N JD DOM JOSE", "bairro_informado": "", "fq": "17.13.86.0550.01.000", "categoria": "Esporte", "subcategoria": "Esporte e lazer", "fonte": "Base municipal de Equipamentos Urbanos", "ano_referencia": 2021, "status_atualizacao": "validar_atualidade" }, "geometry": { "type": "Point", "coordinates": [ -46.805282402597342, -23.670734754495236 ] } },
{ "type": "Feature", "properties": { "id": "esportes-14", "codigo_origem": "14", "nome": "CAMPO VISTA ALEGRE", "endereco": "R MONTENEGRO, 748 JD VISTA ALEGRE", "bairro_informado": "", "fq": "80.01.07.0146.01.000", "categoria": "Esporte", "subcategoria": "Esporte e lazer", "fonte": "Base municipal de Equipamentos Urbanos", "ano_referencia": 2021, "status_atualizacao": "validar_atualidade" }, "geometry": { "type": "Point", "coordinates": [ -46.823364420568105, -23.628303635692376 ] } },
{ "type": "Feature", "properties": { "id": "esportes-15", "codigo_origem": "15", "nome": "CAMPO EMPILIO CARLOS", "endereco": "AV LUIS BOYLLES, 543 JD EMIIO CARLOS", "bairro_informado": "", "fq": "14.54.39.0015.01.000", "categoria": "Esporte", "subcategoria": "Esporte e lazer", "fonte": "Base municipal de Equipamentos Urbanos", "ano_referencia": 2021, "status_atualizacao": "validar_atualidade" }, "geometry": { "type": "Point", "coordinates": [ -46.794879871729833, -23.663345232176439 ] } },
{ "type": "Feature", "properties": { "id": "esportes-16", "codigo_origem": "16", "nome": "QUADRA SOCIETY LIBERTY", "endereco": "R LIBERTY, 740 JD SANTA TEREZA", "bairro_informado": "", "fq": "80.01.03.0210.01.000", "categoria": "Esporte", "subcategoria": "Esporte e lazer", "fonte": "Base municipal de Equipamentos Urbanos", "ano_referencia": 2021, "status_atualizacao": "validar_atualidade" }, "geometry": { "type": "Point", "coordinates": [ -46.808578445331669, -23.648862513258095 ] } },
{ "type": "Feature", "properties": { "id": "esportes-17", "codigo_origem": "17", "nome": "QUADRA DO TOME", "endereco": "ESTR DO EMBU, S/N JD TOME", "bairro_informado": "", "fq": "80.01.05.1676.01.000", "categoria": "Esporte", "subcategoria": "Esporte e lazer", "fonte": "Base municipal de Equipamentos Urbanos", "ano_referencia": 2021, "status_atualizacao": "validar_atualidade" }, "geometry": { "type": "Point", "coordinates": [ -46.850269355543702, -23.622846861624271 ] } },
{ "type": "Feature", "properties": { "id": "esportes-18", "codigo_origem": "18", "nome": "ASSOCIACAO DOS MORADORES VALO VERDE", "endereco": "R SAO MARCELO, 14 JD VALO VERDE", "bairro_informado": "", "fq": "SEM FQ.", "categoria": "Esporte", "subcategoria": "Esporte e lazer", "fonte": "Base municipal de Equipamentos Urbanos", "ano_referencia": 2021, "status_atualizacao": "validar_atualidade" }, "geometry": { "type": "Point", "coordinates": [ -46.811090762784417, -23.655372967779485 ] } },
{ "type": "Feature", "properties": { "id": "esportes-19", "codigo_origem": "19", "nome": "ACORDE", "endereco": "ESTR DO MOINHO VELHO, 1144  JD TOME", "bairro_informado": "", "fq": "80.01.05.0259.01.000", "categoria": "Esporte", "subcategoria": "Esporte e lazer", "fonte": "Base municipal de Equipamentos Urbanos", "ano_referencia": 2021, "status_atualizacao": "validar_atualidade" }, "geometry": { "type": "Point", "coordinates": [ -46.846691579441476, -23.622328308699373 ] } },
{ "type": "Feature", "properties": { "id": "esportes-20", "codigo_origem": "20", "nome": "QUADRA LAILA", "endereco": "R BOM RETIRO, S/N JD LAILA", "bairro_informado": "", "fq": "12.14.33.0296.01.000", "categoria": "Esporte", "subcategoria": "Esporte e lazer", "fonte": "Base municipal de Equipamentos Urbanos", "ano_referencia": 2021, "status_atualizacao": "validar_atualidade" }, "geometry": { "type": "Point", "coordinates": [ -46.803381234715928, -23.65237401665069 ] } },
{ "type": "Feature", "properties": { "id": "esportes-21", "codigo_origem": "21", "nome": "CEU COLEGIO", "endereco": "R URSA MAIOR, S/N JD DO COLEGIO", "bairro_informado": "", "fq": "13.33.31.0010.01.000", "categoria": "Esporte", "subcategoria": "Esporte e lazer", "fonte": "Base municipal de Equipamentos Urbanos", "ano_referencia": 2021, "status_atualizacao": "validar_atualidade" }, "geometry": { "type": "Point", "coordinates": [ -46.818225938923753, -23.655532583011791 ] } },
{ "type": "Feature", "properties": { "id": "esportes-22", "codigo_origem": "22", "nome": "CAMPO DE FUTEBOL PEREQUE", "endereco": "AV ROTARY, 3326  JD PEREQUE", "bairro_informado": "", "fq": "80.01.03.0037.01.000", "categoria": "Esporte", "subcategoria": "Esporte e lazer", "fonte": "Base municipal de Equipamentos Urbanos", "ano_referencia": 2021, "status_atualizacao": "validar_atualidade" }, "geometry": { "type": "Point", "coordinates": [ -46.810609952599613, -23.645119585082714 ] } },
{ "type": "Feature", "properties": { "id": "esportes-23", "codigo_origem": "23", "nome": "INSTITUTO EMBU DE SUSTENTABILIDADE", "endereco": "R LUIS VAZ DE CAMOES, 186 - JD ITATUBA", "bairro_informado": "", "fq": "SEM FQ.", "categoria": "Esporte", "subcategoria": "Esporte e lazer", "fonte": "Base municipal de Equipamentos Urbanos", "ano_referencia": 2021, "status_atualizacao": "validar_atualidade" }, "geometry": { "type": "Point", "coordinates": [ -46.903272918779642, -23.648449760497332 ] } },
{ "type": "Feature", "properties": { "id": "esportes-24", "codigo_origem": "24", "nome": "QUADRA SOCIETY SANTA EMILIA", "endereco": "R CAPRI, S/N JD SANTA EMILIA", "bairro_informado": "", "fq": "SEM FQ.", "categoria": "Esporte", "subcategoria": "Esporte e lazer", "fonte": "Base municipal de Equipamentos Urbanos", "ano_referencia": 2021, "status_atualizacao": "validar_atualidade" }, "geometry": { "type": "Point", "coordinates": [ -46.798197706266834, -23.661837545318573 ] } }
]
}
